     2.11           N: GPS NAV DATA                         RINEX VERSION / TYPE
teqc  2019Feb25                         20221121 12:24:00UTCPGM / RUN BY / DATE
OSX ker:10.11.6|Core i5|gcc 4.3 -m64|OSX ker:10.10+|=+      COMMENT
    6.5193D-09  2.2352D-08 -5.9605D-08 -1.1921D-07          ION ALPHA
    8.6016D+04  9.8304D+04 -6.5536D+04 -5.2429D+05          ION BETA
    0.000000000000D+00-2.664535259100D-15   233472     1535 DELTA-UTC: A0,A1,T,W
                                                            END OF HEADER
 6 09  6  8  3 59 44.0 1.531601883471D-04 1.364242052659D-11 0.000000000000D+00
    1.400000000000D+01 1.421875000000D+01 5.692379967617D-09-1.420341671366D+00
    8.586794137955D-07 5.990920588374D-03 5.347654223442D-06 5.153691364288D+03
    1.007840000000D+05-1.490116119385D-07-1.739127447627D+00 1.080334186554D-07
    9.333111654363D-01 2.641250000000D+02-1.350241418015D+00-8.436422839446D-09
    2.053656971627D-10 1.000000000000D+00 1.535000000000D+03 0.000000000000D+00
    2.000000000000D+00 0.000000000000D+00-4.656612873077D-09 1.400000000000D+01
    9.361800000000D+04 4.000000000000D+00
 7 09  6  8  3 59 44.0 1.745857298374D-05-6.821210263297D-13 0.000000000000D+00
    1.200000000000D+01-1.420000000000D+02 4.205532320159D-09 1.057617108169D+00
   -7.331371307373D-06 2.648225752637D-03 5.191192030907D-06 5.153672847748D+03
    1.007840000000D+05 5.215406417847D-08 2.496736551693D+00 7.450580596924D-08
    9.677158387576D-01 2.846250000000D+02 2.874955077762D+00-7.988547040764D-09
   -8.928943354902D-11 1.000000000000D+00 1.535000000000D+03 0.000000000000D+00
    2.000000000000D+00 0.000000000000D+00-1.071020960808D-08 1.200000000000D+01
    9.361800000000D+04 4.000000000000D+00
28 09  6  8  4  0  0.0-2.533290535212D-05-2.273736754432D-13 0.000000000000D+00
    7.200000000000D+01-4.421875000000D+01 4.176602543689D-09-1.978502731666D+00
   -2.274289727211D-06 1.490020193160D-02 1.003406941891D-05 5.153650022507D+03
    1.008000000000D+05 2.272427082062D-07-2.709701481600D+00 5.215406417847D-08
    9.669778668067D-01 1.825625000000D+02-2.024477770368D+00-7.434952552760D-09
    7.189585189367D-10 1.000000000000D+00 1.535000000000D+03 0.000000000000D+00
    2.800000000000D+00 0.000000000000D+00-1.071020960808D-08 7.200000000000D+01
    9.361800000000D+04 4.000000000000D+00
11 09  6  8  4  0  0.0-5.620531737804D-06-1.477928890381D-12 0.000000000000D+00
    8.400000000000D+01-1.425000000000D+01 6.523128857357D-09 8.766923839053D-01
   -4.433095455170D-07 9.386769379489D-03 6.726011633873D-06 5.153680166245D+03
    1.008000000000D+05-7.450580596924D-09-8.592817116181D-01 1.154839992523D-07
    8.892385741616D-01 2.105937500000D+02 6.980203150279D-01-8.950729976688D-09
   -7.268159890890D-10 1.000000000000D+00 1.535000000000D+03 0.000000000000D+00
    2.000000000000D+00 0.000000000000D+00-1.164153218269D-08 8.400000000000D+01
    9.361800000000D+04 4.000000000000D+00
22 09  6  8  4  0  0.0 1.980480737984D-04-7.958078640513D-13 0.000000000000D+00
    5.900000000000D+01 1.205937500000D+02 4.499115977668D-09-2.231466567277D+00
    6.198883056641D-06 5.035529844463D-03 8.091330528259D-06 5.153663227081D+03
    1.008000000000D+05 7.264316082001D-08 4.362644061294D-01-1.173466444016D-07
    9.402257852522D-01 2.157500000000D+02-1.885855041295D+00-7.859613098719D-09
   -1.050043738536D-10 1.000000000000D+00 1.535000000000D+03 0.000000000000D+00
    2.800000000000D+00 0.000000000000D+00-1.769512891769D-08 5.900000000000D+01
    9.361800000000D+04 4.000000000000D+00
26 09  6  8  4  0  0.0 6.319163367152D-05 9.094947017729D-13 0.000000000000D+00
    4.800000000000D+01 3.437500000000D+01 3.960879272235D-09 1.219822634052D+00
    1.624226570129D-06 2.041460131295D-02 1.246109604836D-06 5.154889942169D+03
    1.008000000000D+05-2.831220626831D-07 1.504311312673D+00 2.607703208923D-08
    9.924229012773D-01 3.778125000000D+02 1.014194669873D+00-8.259272603284D-09
   -4.928776731906D-11 1.000000000000D+00 1.535000000000D+03 0.000000000000D+00
    2.000000000000D+00 0.000000000000D+00-6.519258022308D-09 4.800000000000D+01
    9.361800000000D+04 4.000000000000D+00
15 09  6  8  4  0  0.0-2.990565262735D-04-3.296918293927D-12 0.000000000000D+00
    4.700000000000D+01 5.018750000000D+01 4.686623788121D-09-2.880863976508D+00
    2.682209014893D-06 1.436128164642D-03 3.501772880554D-07 5.153622322083D+03
    1.008000000000D+05 2.048909664154D-08 1.434257072484D+00 5.215406417847D-08
    9.561218589532D-01 3.695312500000D+02-4.610552792259D-01-8.423208003280D-09
    1.585780339831D-10 1.000000000000D+00 1.535000000000D+03 0.000000000000D+00
    2.000000000000D+00 0.000000000000D+00-9.778887033463D-09 4.700000000000D+01
    9.361800000000D+04 4.000000000000D+00
27 09  6  8  4  0  0.0 5.565723404288D-05 3.183231456205D-12 0.000000000000D+00
    1.600000000000D+02-1.318125000000D+02 3.973022635197D-09-2.805826842773D+00
   -6.949529051781D-06 2.128641970921D-02 3.905966877937D-06 5.153789859772D+03
    1.008000000000D+05 3.278255462646D-07 2.438683648163D+00 9.499490261078D-08
    9.746395315915D-01 3.032812500000D+02-1.588947632081D+00-7.594602059946D-09
    2.142946405177D-12 1.000000000000D+00 1.535000000000D+03 0.000000000000D+00
    2.800000000000D+00 0.000000000000D+00-4.190951585770D-09 1.600000000000D+02
    9.499200000000D+04 4.000000000000D+00
17 09  6  8  4  0  0.0 6.324937567115D-05 2.273736754432D-12 0.000000000000D+00
    6.700000000000D+01 4.750000000000D+00 5.065925301837D-09-2.499844421674D+00
    3.222376108170D-07 4.526157397777D-03 5.222856998444D-06 5.153679592133D+03
    1.008000000000D+05 4.656612873077D-08-1.675511164657D+00-1.676380634308D-07
    9.592197854800D-01 2.761250000000D+02-2.638747614087D+00-8.065693111350D-09
    1.432202514126D-10 1.000000000000D+00 1.535000000000D+03 0.000000000000D+00
    2.000000000000D+00 0.000000000000D+00-1.024454832077D-08 6.700000000000D+01
    9.619200000000D+04 4.000000000000D+00
 9 09  6  8  4  0  0.0 6.002699956298D-05 2.046363078989D-12 0.000000000000D+00
    2.200000000000D+01-1.112187500000D+02 4.126243303167D-09 9.118799948906D-02
   -6.055459380150D-06 2.062405110337D-02 5.161389708519D-06 5.153635890961D+03
    1.008000000000D+05-3.445893526077D-07 2.462811165445D+00 9.313225746155D-09
    9.766044368434D-01 2.922500000000D+02 1.479956879242D+00-8.267487231171D-09
   -9.678974596714D-11 1.000000000000D+00 1.535000000000D+03 0.000000000000D+00
    2.000000000000D+00 0.000000000000D+00-5.587935447693D-09 2.200000000000D+01
    9.760200000000D+04 4.000000000000D+00
32 09  6  8  4  0  0.0 2.503111027181D-04-5.456968210638D-12 0.000000000000D+00
    6.200000000000D+01 1.340937500000D+02 4.025167664390D-09 1.822164535713D+00
    6.800517439842D-06 1.331304979976D-02 7.539987564087D-06 5.153560485840D+03
    1.008000000000D+05 3.054738044739D-07 4.865317181590D-01 2.048909664154D-08
    9.641955209679D-01 2.299062500000D+02-1.159800919278D+00-7.640318249923D-09
   -6.928860043404D-11 1.000000000000D+00 1.535000000000D+03 0.000000000000D+00
    2.000000000000D+00 0.000000000000D+00-3.259629011154D-09 6.200000000000D+01
    9.769200000000D+04 4.000000000000D+00
14 09  6  8  3 59 44.0-9.820749983191D-05 5.911715561524D-12 0.000000000000D+00
    2.000000000000D+00 2.896875000000D+01 3.829088068316D-09-3.048037120146D+00
    1.564621925354D-06 4.465682548471D-03 5.606561899185D-07 5.153610118866D+03
    1.007840000000D+05 1.490116119385D-08 1.487128078797D+00 9.313225746155D-09
    9.880941895863D-01 3.833437500000D+02-2.157662964603D+00-7.903543500025D-09
    1.735786588193D-10 1.000000000000D+00 1.535000000000D+03 0.000000000000D+00
    2.000000000000D+00 0.000000000000D+00-9.313225746155D-09 2.000000000000D+00
    9.874200000000D+04 4.000000000000D+00
20 09  6  8  3 59 44.0 8.050631731749D-05-1.023181539495D-12 0.000000000000D+00
    0.000000000000D+00 1.325625000000D+02 4.549832375924D-09-1.053007431358D+00
    6.778165698051D-06 3.940677153878D-03 8.476898074150D-06 5.153605518341D+03
    1.007840000000D+05-1.676380634308D-08 3.767798543933D-01 8.381903171539D-08
    9.422389521716D-01 2.055312500000D+02 1.363529819759D+00-8.071764792832D-09
   -1.425059359442D-10 1.000000000000D+00 1.535000000000D+03 0.000000000000D+00
    2.000000000000D+00 0.000000000000D+00-6.519258022308D-09 0.000000000000D+00
    9.985200000000D+04 4.000000000000D+00
11 09  6  8  6  0  0.0-5.631241947412D-06-1.477928890381D-12 0.000000000000D+00
    1.210000000000D+02-1.853125000000D+01 6.489556030343D-09 1.926814686263D+00
   -1.009553670883D-06 9.386834688485D-03 6.997957825661D-06 5.153681394577D+03
    1.080000000000D+05-2.719461917877D-07-8.593468948589D-01-9.313225746155D-09
    8.892344253260D-01 2.090000000000D+02 6.980898241175D-01-8.772151109590D-09
   -5.432369137122D-10 1.000000000000D+00 1.535000000000D+03 0.000000000000D+00
    2.800000000000D+00 0.000000000000D+00-1.164153218269D-08 1.210000000000D+02
    1.008180000000D+05 4.000000000000D+00
28 09  6  8  6  0  0.0-2.533476799726D-05-2.273736754432D-13 0.000000000000D+00
    7.300000000000D+01-4.021875000000D+01 4.264820504035D-09-9.283431760996D-01
   -1.758337020874D-06 1.490029448178D-02 1.055002212524D-05 5.153649084091D+03
    1.080000000000D+05-2.235174179077D-08-2.709755423779D+00 3.650784492493D-07
    9.669811247252D-01 1.814062500000D+02-2.024444093994D+00-7.804610807653D-09
    6.264546657799D-10 1.000000000000D+00 1.535000000000D+03 0.000000000000D+00
    2.800000000000D+00 0.000000000000D+00-1.071020960808D-08 7.300000000000D+01
    1.008180000000D+05 4.000000000000D+00
